{
  "norad_id": 54161,
  "name": "STARLINK-5269",
  "history": [
    {
      "epoch": "2026-03-28T19:39:23.359104Z",
      "apogee_km": 540.7273084732924,
      "perigee_km": 538.8021947738507,
      "latitude_deg": 3.4931723447590105e-05,
      "longitude_deg": 167.26989717377606,
      "height_km": 540.6734672452776,
      "semi_major_axis_km": 6917.901751623572,
      "eccentricity": 0.00013914,
      "inclination_deg": 53.2179,
      "raan_deg": 288.3512,
      "arg_perigee_deg": 90.7743,
      "mean_anomaly_deg": 269.3409,
      "mean_motion_rev_day": 15.08833011
    },
    {
      "epoch": "2026-03-29T06:47:05.152128Z",
      "apogee_km": 540.693605020424,
      "perigee_km": 538.7961683765398,
      "latitude_deg": -2.2844616635276464e-05,
      "longitude_deg": -2.1927053594034676,
      "height_km": 540.6334566916566,
      "semi_major_axis_km": 6917.881886698481,
      "eccentricity": 0.00013714,
      "inclination_deg": 53.218,
      "raan_deg": 286.2698,
      "arg_perigee_deg": 89.5659,
      "mean_anomaly_deg": 270.549,
      "mean_motion_rev_day": 15.0883951
    },
    {
      "epoch": "2026-03-30T12:59:23.812512Z",
      "apogee_km": 540.5863436062727,
      "perigee_km": 538.8098435542415,
      "latitude_deg": -9.82281609418858e-06,
      "longitude_deg": -102.16132909289875,
      "height_km": 540.5541620956242,
      "semi_major_axis_km": 6917.835093580257,
      "eccentricity": 0.0001284,
      "inclination_deg": 53.2179,
      "raan_deg": 280.6194,
      "arg_perigee_deg": 87.4315,
      "mean_anomaly_deg": 272.6824,
      "mean_motion_rev_day": 15.08854819
    },
    {
      "epoch": "2026-03-30T22:31:43.389696Z",
      "apogee_km": 540.6963299607996,
      "perigee_km": 538.8300188517478,
      "latitude_deg": 3.9843500570821004e-05,
      "longitude_deg": 112.58119327068783,
      "height_km": 540.6126763507716,
      "semi_major_axis_km": 6917.900174406273,
      "eccentricity": 0.00013489,
      "inclination_deg": 53.2179,
      "raan_deg": 278.8352,
      "arg_perigee_deg": 87.158,
      "mean_anomaly_deg": 272.9567,
      "mean_motion_rev_day": 15.08833527
    },
    {
      "epoch": "2026-03-31T12:50:12.095808Z",
      "apogee_km": 540.7186240051997,
      "perigee_km": 538.8189670737447,
      "latitude_deg": 5.707196860374959e-05,
      "longitude_deg": -105.30230950709046,
      "height_km": 540.6211339028827,
      "semi_major_axis_km": 6917.905795539472,
      "eccentricity": 0.0001373,
      "inclination_deg": 53.2178,
      "raan_deg": 276.1589,
      "arg_perigee_deg": 87.3821,
      "mean_anomaly_deg": 272.7329,
      "mean_motion_rev_day": 15.08831688
    },
    {
      "epoch": "2026-04-01T19:02:31.818048Z",
      "apogee_km": 540.6707432264475,
      "perigee_km": 538.848569247195,
      "latitude_deg": 2.5014582033643217e-05,
      "longitude_deg": 154.72489737161055,
      "height_km": 540.5956890730887,
      "semi_major_axis_km": 6917.8966562368205,
      "eccentricity": 0.0001317,
      "inclination_deg": 53.216,
      "raan_deg": 270.5088,
      "arg_perigee_deg": 86.2503,
      "mean_anomaly_deg": 273.864,
      "mean_motion_rev_day": 15.08834678
    },
    {
      "epoch": "2026-04-02T20:28:42.546144Z",
      "apogee_km": 540.7023670177441,
      "perigee_km": 538.8303823645529,
      "latitude_deg": 6.880961315418969e-05,
      "longitude_deg": 127.3777981157953,
      "height_km": 540.6727844156558,
      "semi_major_axis_km": 6917.903374691148,
      "eccentricity": 0.0001353,
      "inclination_deg": 53.2161,
      "raan_deg": 265.751,
      "arg_perigee_deg": 90.6639,
      "mean_anomaly_deg": 269.4509,
      "mean_motion_rev_day": 15.0883248
    },
    {
      "epoch": "2026-04-02T20:28:42.547008Z",
      "apogee_km": 540.7025053758116,
      "perigee_km": 538.8302440064854,
      "latitude_deg": 6.696296480425081e-05,
      "longitude_deg": 127.37779313285223,
      "height_km": 540.6727860186012,
      "semi_major_axis_km": 6917.903374691148,
      "eccentricity": 0.00013532,
      "inclination_deg": 53.2161,
      "raan_deg": 265.751,
      "arg_perigee_deg": 90.6639,
      "mean_anomaly_deg": 269.4509,
      "mean_motion_rev_day": 15.0883248
    },
    {
      "epoch": "2026-04-03T18:44:06.312768Z",
      "apogee_km": 540.6973366090633,
      "perigee_km": 538.7949187489521,
      "latitude_deg": -1.4522836065715252e-05,
      "longitude_deg": 148.45216243951504,
      "height_km": 540.5661616713605,
      "semi_major_axis_km": 6917.883127679008,
      "eccentricity": 0.0001375,
      "inclination_deg": 53.2178,
      "raan_deg": 261.5885,
      "arg_perigee_deg": 85.4352,
      "mean_anomaly_deg": 274.6797,
      "mean_motion_rev_day": 15.08839104
    },
    {
      "epoch": "2026-04-04T04:16:24.930912Z",
      "apogee_km": 540.7354973467436,
      "perigee_km": 538.7486824721218,
      "latitude_deg": 4.829671543797762e-07,
      "longitude_deg": 3.1983653283678977,
      "height_km": 540.5476953631767,
      "semi_major_axis_km": 6917.879089909433,
      "eccentricity": 0.0001436,
      "inclination_deg": 53.2182,
      "raan_deg": 259.804,
      "arg_perigee_deg": 84.7968,
      "mean_anomaly_deg": 275.3188,
      "mean_motion_rev_day": 15.08840425
    },
    {
      "epoch": "2026-04-05T10:28:44.541696Z",
      "apogee_km": 540.7254874597575,
      "perigee_km": 538.7545842922364,
      "latitude_deg": 2.1049043668160398e-05,
      "longitude_deg": -96.77332619072165,
      "height_km": 540.5510053003968,
      "semi_major_axis_km": 6917.877035875997,
      "eccentricity": 0.00014245,
      "inclination_deg": 53.2171,
      "raan_deg": 254.1545,
      "arg_perigee_deg": 85.0739,
      "mean_anomaly_deg": 275.0416,
      "mean_motion_rev_day": 15.08841097
    },
    {
      "epoch": "2026-04-05T16:50:17.066688Z",
      "apogee_km": 540.6933767119835,
      "perigee_km": 538.7785094813344,
      "latitude_deg": 5.9690708650589835e-05,
      "longitude_deg": 166.39042498992112,
      "height_km": 540.5599617732712,
      "semi_major_axis_km": 6917.872943096659,
      "eccentricity": 0.0001384,
      "inclination_deg": 53.217,
      "raan_deg": 252.9649,
      "arg_perigee_deg": 85.7106,
      "mean_anomaly_deg": 274.4045,
      "mean_motion_rev_day": 15.08842436
    },
    {
      "epoch": "2026-04-05T16:50:17.067552Z",
      "apogee_km": 540.6935842481716,
      "perigee_km": 538.7783019451463,
      "latitude_deg": 5.6928610366014005e-05,
      "longitude_deg": 166.39041932635672,
      "height_km": 540.5599462507633,
      "semi_major_axis_km": 6917.872943096659,
      "eccentricity": 0.00013843,
      "inclination_deg": 53.217,
      "raan_deg": 252.9649,
      "arg_perigee_deg": 85.7106,
      "mean_anomaly_deg": 274.4045,
      "mean_motion_rev_day": 15.08842436
    },
    {
      "epoch": "2026-04-06T19:51:50.520384Z",
      "apogee_km": 540.6209723425773,
      "perigee_km": 538.8750365251572,
      "latitude_deg": -4.0341278680710445e-05,
      "longitude_deg": 114.83464091257362,
      "height_km": 540.6935893894438,
      "semi_major_axis_km": 6917.885004433867,
      "eccentricity": 0.00012619,
      "inclination_deg": 53.2166,
      "raan_deg": 247.9085,
      "arg_perigee_deg": 93.2717,
      "mean_anomaly_deg": 266.8419,
      "mean_motion_rev_day": 15.0883849
    },
    {
      "epoch": "2026-04-07T19:42:37.663200Z",
      "apogee_km": 540.6286243496334,
      "perigee_km": 538.8756312446485,
      "latitude_deg": -9.728534954674816e-06,
      "longitude_deg": 111.69829441715088,
      "height_km": 540.7612236356302,
      "semi_major_axis_km": 6917.889127797141,
      "eccentricity": 0.0001267,
      "inclination_deg": 53.2168,
      "raan_deg": 243.4479,
      "arg_perigee_deg": 97.4279,
      "mean_anomaly_deg": 262.6857,
      "mean_motion_rev_day": 15.08837141
    },
    {
      "epoch": "2026-04-08T14:47:15.739296Z",
      "apogee_km": 540.6186634382957,
      "perigee_km": 538.9178272546751,
      "latitude_deg": 2.3386650374012383e-05,
      "longitude_deg": -178.81260833248643,
      "height_km": 540.7797400205694,
      "semi_major_axis_km": 6917.905245346485,
      "eccentricity": 0.00012293,
      "inclination_deg": 53.2169,
      "raan_deg": 239.8791,
      "arg_perigee_deg": 97.8163,
      "mean_anomaly_deg": 262.2969,
      "mean_motion_rev_day": 15.08831868
    }
  ]
}